NORAD_CAT_ID,OBJECT_NAME,OBJECT_TYPE,EPOCH,MEAN_MOTION,ECCENTRICITY,INCLINATION,RA_OF_ASC_NODE,ARG_OF_PERICENTER,MEAN_ANOMALY,BSTAR,MEAN_MOTION_DOT,MEAN_MOTION_DDOT,TLE_LINE0,TLE_LINE1,TLE_LINE2,SEMIMAJOR_AXIS,PERIOD,APOGEE,PERIGEE,DECAYED
52116.0,STARLINK-3735,PAYLOAD,2024-06-16 22:33:29,15.08837085,0.0001167,53.2172,30.6696,92.1595,267.953,0.0004028,6.128e-05,0.0,0 STARLINK-3735,1 52116U 22029AE  24168.93992735  .00006128  00000-0  40280-3 0  9992,2 52116  53.2172  30.6696 0001167  92.1595 267.9530 15.08837085125569,6917.889,95.438,540.562,538.947,0.0
52116.0,STARLINK-3735,PAYLOAD,2024-06-17 20:48:53,15.08846187,0.0001234,53.2178,26.5031,93.1629,266.9504,0.00084395,0.00013171,0.0,0 STARLINK-3735,1 52116U 22029AE  24169.86728786  .00013171  00000-0  84395-3 0  9999,2 52116  53.2178  26.5031 0001234  93.1629 266.9504 15.08846187125705,6917.861,95.437,540.58,538.873,0.0
52116.0,STARLINK-3735,PAYLOAD,2024-06-17 23:59:39,15.08849852,0.0001204,53.2179,25.9089,94.6923,265.4207,0.001017,0.00015939,0.0,0 STARLINK-3735,1 52116U 22029AE  24169.99976764  .00015939  00000-0  10170-2 0  9997,2 52116  53.2179  25.9089 0001204  94.6923 265.4207 15.08849852125720,6917.85,95.437,540.548,538.882,0.0
52116.0,STARLINK-3735,PAYLOAD,2024-06-18 20:39:40,15.08846756,0.0001313,53.2178,22.046,82.1868,277.9273,0.00068521,0.00010636,0.0,0 STARLINK-3735,1 52116U 22029AE  24170.86089114  .00010636  00000-0  68521-3 0  9992,2 52116  53.2178  22.0460 0001313  82.1868 277.9273 15.08846756125856,6917.86,95.437,540.633,538.816,0.0
52116.0,STARLINK-3735,PAYLOAD,2024-06-19 18:55:05,15.08841298,0.0001348,53.2172,17.8804,94.2091,265.9056,0.00023691,3.485e-05,0.0,0 STARLINK-3735,1 52116U 22029AE  24171.78825246  .00003485  00000-0  23691-3 0  9991,2 52116  53.2172  17.8804 0001348  94.2091 265.9056 15.08841298125991,6917.876,95.437,540.674,538.809,0.0
52116.0,STARLINK-3735,PAYLOAD,2024-06-20 20:21:15,15.08839656,0.0001279,53.2176,13.1212,90.0063,270.1076,0.00011444,1.534e-05,0.0,0 STARLINK-3735,1 52116U 22029AE  24172.84809318  .00001534  00000-0  11444-3 0  9997,2 52116  53.2176  13.1212 0001279  90.0063 270.1076 15.08839656126157,6917.881,95.438,540.631,538.862,0.0
52116.0,STARLINK-3735,PAYLOAD,2024-06-21 13:50:29,15.0883876,0.0001208,53.2167,9.8512,77.27,282.8427,4.9292e-05,4.97e-06,0.0,0 STARLINK-3735,1 52116U 22029AE  24173.57673485  .00000497  00000-0  49292-4 0  9992,2 52116  53.2167   9.8512 0001208  77.2700 282.8427 15.08838760126266,6917.884,95.438,540.585,538.913,0.0
52116.0,STARLINK-3735,PAYLOAD,2024-06-21 18:36:39,15.0883442,0.000119,53.2166,8.959,77.6016,282.5109,-2.9286e-05,-7.54e-06,0.0,0 STARLINK-3735,1 52116U 22029AE  24173.77545693 -.00000754  00000-0 -29286-4 0  9992,2 52116  53.2166   8.9590 0001190  77.6016 282.5109 15.08834420126291,6917.897,95.438,540.586,538.939,0.0
52116.0,STARLINK-3735,PAYLOAD,2024-06-22 13:41:17,15.08839114,0.0001185,53.218,5.3932,89.5962,270.5166,0.00010629,1.404e-05,0.0,0 STARLINK-3735,1 52116U 22029AE  24174.57033740  .00001404  00000-0  10629-3 0  9997,2 52116  53.2180   5.3932 0001185  89.5962 270.5166 15.08839114126413,6917.883,95.438,540.568,538.928,0.0
52116.0,STARLINK-3735,PAYLOAD,2024-06-22 20:02:49,15.08842426,0.0001191,53.2181,4.2037,88.7664,271.3465,0.00012524,1.706e-05,0.0,0 STARLINK-3735,1 52116U 22029AE  24174.83529502  .00001706  00000-0  12524-3 0  9993,2 52116  53.2181   4.2037 0001191  88.7664 271.3465 15.08842426126450,6917.873,95.437,540.562,538.914,0.0
52116.0,STARLINK-3735,PAYLOAD,2024-06-23 11:56:41,15.08836072,0.000128,53.2181,1.2271,97.3793,262.7345,0.00012106,1.639e-05,0.0,0 STARLINK-3735,1 52116U 22029AE  24175.49769931  .00001639  00000-0  12106-3 0  9999,2 52116  53.2181   1.2271 0001280  97.3793 262.7345 15.08836072126557,6917.892,95.438,540.643,538.872,0.0
52116.0,STARLINK-3735,PAYLOAD,2024-06-23 21:28:59,15.08839694,0.0001265,53.2183,359.4435,97.8217,262.2918,0.0001389,1.923e-05,0.0,0 STARLINK-3735,1 52116U 22029AE  24175.89513770  .00001923  00000-0  13890-3 0  9998,2 52116  53.2183 359.4435 0001265  97.8217 262.2918 15.08839694126619,6917.881,95.438,540.621,538.871,0.0
52116.0,STARLINK-3735,PAYLOAD,2024-06-24 11:47:27,15.08844687,0.0001275,53.2184,356.7674,95.3646,264.7492,9.0096e-05,1.146e-05,0.0,0 STARLINK-3735,1 52116U 22029AE  24176.49129561  .00001146  00000-0  90096-4 0  9997,2 52116  53.2184 356.7674 0001275  95.3646 264.7492 15.08844687126707,6917.866,95.437,540.613,538.849,0.0
52116.0,STARLINK-3735,PAYLOAD,2024-06-24 18:09:00,15.08842577,0.0001285,53.2186,355.5776,94.5943,265.5196,6.3661e-05,7.25e-06,0.0,0 STARLINK-3735,1 52116U 22029AE  24176.75625720  .00000725  00000-0  63661-4 0  9994,2 52116  53.2186 355.5776 0001285  94.5943 265.5196 15.08842577126741,6917.873,95.437,540.626,538.849,0.0
52116.0,STARLINK-3735,PAYLOAD,2024-06-25 17:59:47,15.08845535,0.000122,53.2185,351.1171,97.0215,263.0916,8.9261e-05,1.133e-05,0.0,0 STARLINK-3735,1 52116U 22029AE  24177.74985369  .00001133  00000-0  89261-4 0  9990,2 52116  53.2185 351.1171 0001220  97.0215 263.0916 15.08845535126896,6917.863,95.437,540.572,538.884,0.0
52116.0,STARLINK-3735,PAYLOAD,2024-06-27 17:41:21,15.08834586,0.0001146,53.2179,342.1975,85.8008,274.3115,0.00020803,3.024e-05,0.0,0 STARLINK-3735,1 52116U 22029AE  24179.73705917  .00003024  00000-0  20803-3 0  9997,2 52116  53.2179 342.1975 0001146  85.8008 274.3115 15.08834586127197,6917.897,95.438,540.555,538.969,0.0
52116.0,STARLINK-3735,PAYLOAD,2024-06-27 22:27:30,15.08851223,0.0001214,53.2191,341.3048,79.8453,280.2676,8.8505e-05,1.121e-05,0.0,0 STARLINK-3735,1 52116U 22029AE  24179.93577191  .00001121  00000-0  88505-4 0  9990,2 52116  53.2191 341.3048 0001214  79.8453 280.2676 15.08851223127225,6917.846,95.437,540.551,538.871,0.0
52116.0,STARLINK-3735,PAYLOAD,2024-06-28 11:10:36,15.08838732,0.0001093,53.2179,338.9279,75.9336,284.1777,5.927e-05,6.56e-06,0.0,0 STARLINK-3735,1 52116U 22029AE  24180.46570045  .00000656  00000-0  59270-4 0  9990,2 52116  53.2179 338.9279 0001093  75.9336 284.1777 15.08838732127305,6917.884,95.438,540.505,538.993,0.0
52116.0,STARLINK-3735,PAYLOAD,2024-06-28 14:21:22,15.08840303,0.00011,53.2177,338.3322,81.3166,278.795,7.0698e-05,8.38e-06,0.0,0 STARLINK-3735,1 52116U 22029AE  24180.59817970  .00000838  00000-0  70698-4 0  9994,2 52116  53.2177 338.3322 0001100  81.3166 278.7950 15.08840303127328,6917.879,95.438,540.505,538.983,0.0
52116.0,STARLINK-3735,PAYLOAD,2024-06-28 17:32:08,15.08844317,0.0001198,53.2175,337.7356,90.8502,269.2628,0.00011331,1.516e-05,0.0,0 STARLINK-3735,1 52116U 22029AE  24180.73065728  .00001516  00000-0  11331-3 0  9998,2 52116  53.2175 337.7356 0001198  90.8502 269.2628 15.08844317127340,6917.867,95.437,540.561,538.903,0.0
52116.0,STARLINK-3735,PAYLOAD,2024-06-29 03:04:26,15.08862393,0.0001031,53.2174,335.9548,86.953,273.158,0.00033525,5.055e-05,0.0,0 STARLINK-3735,1 52116U 22029AE  24181.12808445  .00005055  00000-0  33525-3 0  9994,2 52116  53.2174 335.9548 0001031  86.9530 273.1580 15.08862393127407,6917.812,95.436,540.39,538.964,0.0
52116.0,STARLINK-3735,PAYLOAD,2024-06-29 11:01:24,15.08807396,9.23e-05,53.218,334.4657,93.6117,266.4981,-0.00048702,-8.023e-05,0.0,0 STARLINK-3735,1 52116U 22029AE  24181.45931387 -.00008023  00000-0 -48702-3 0  9995,2 52116  53.2180 334.4657 0000923  93.6117 266.4981 15.08807396127451,6917.98,95.44,540.484,539.207,0.0
52116.0,STARLINK-3735,PAYLOAD,2024-06-29 14:12:10,15.08812505,0.0001203,53.218,333.8727,111.4228,248.6893,-0.00039341,-6.539e-05,0.0,0 STARLINK-3735,1 52116U 22029AE  24181.59179256 -.00006539  00000-0 -39341-3 0  9998,2 52116  53.2180 333.8727 0001203 111.4228 248.6893 15.08812505127470,6917.964,95.439,540.662,538.997,0.0
52116.0,STARLINK-3735,PAYLOAD,2024-06-29 17:22:57,15.08814826,0.0001204,53.2177,333.2813,112.5624,247.5495,-0.0003026,-5.097e-05,0.0,0 STARLINK-3735,1 52116U 22029AE  24181.72427426 -.00005097  00000-0 -30260-3 0  9997,2 52116  53.2177 333.2813 0001204 112.5624 247.5495 15.08814826127495,6917.957,95.439,540.655,538.989,0.0
52116.0,STARLINK-3735,PAYLOAD,2024-06-29 20:33:43,15.0882283,9.74e-05,53.2171,332.6814,92.5187,267.5917,-0.00019306,-3.357e-05,0.0,0 STARLINK-3735,1 52116U 22029AE  24181.85675159 -.00003357  00000-0 -19306-3 0  9994,2 52116  53.2171 332.6814 0000974  92.5187 267.5917 15.08822830127515,6917.933,95.439,540.472,539.124,0.0
52116.0,STARLINK-3735,PAYLOAD,2024-06-30 02:55:15,15.08827996,0.0001056,53.2179,331.4933,101.7701,258.341,-5.7832e-05,-1.208e-05,0.0,0 STARLINK-3735,1 52116U 22029AE  24182.12170976 -.00001208  00000-0 -57832-4 0  9992,2 52116  53.2179 331.4933 0001056 101.7701 258.3410 15.08827996127557,6917.917,95.438,540.513,539.052,0.0
52116.0,STARLINK-3735,PAYLOAD,2024-06-30 14:02:57,15.08843574,0.0001114,53.2169,329.4125,116.0238,244.0869,0.00051928,7.987e-05,0.0,0 STARLINK-3735,1 52116U 22029AE  24182.58538911  .00007987  00000-0  51928-3 0  9996,2 52116  53.2169 329.4125 0001114 116.0238 244.0869 15.08843574127623,6917.869,95.437,540.505,538.964,0.0
52116.0,STARLINK-3735,PAYLOAD,2024-06-30 17:13:44,15.0885846,0.0001052,53.2163,328.8183,111.8089,248.3015,0.0016974,0.00026843,0.0,0 STARLINK-3735,1 52116U 22029AE  24182.71787166  .00026843  00000-0  16974-2 0  9992,2 52116  53.2163 328.8183 0001052 111.8089 248.3015 15.08858460127644,6917.824,95.436,540.417,538.961,0.0
52116.0,STARLINK-3735,PAYLOAD,2024-07-01 13:53:44,15.08842622,5.75e-05,53.216,324.9517,100.6405,259.4652,0.00039142,5.948e-05,0.0,0 STARLINK-3735,1 52116U 22029AE  24183.57898348  .00005948  00000-0  39142-3 0  9998,2 52116  53.2160 324.9517 0000575 100.6405 259.4652 15.08842622127773,6917.872,95.437,540.135,539.34,0.0
52116.0,STARLINK-3735,PAYLOAD,2024-07-01 17:04:30,15.08846101,7.86e-05,53.2159,324.3572,79.9676,280.1405,0.0015761,0.00024889,0.0,0 STARLINK-3735,1 52116U 22029AE  24183.71146527  .00024889  00000-0  15761-2 0  9994,2 52116  53.2159 324.3572 0000786  79.9676 280.1405 15.08846101127793,6917.862,95.437,540.27,539.183,0.0
